CCSDS_OMM_VERS = 2.0
CREATION_DATE  = 
ORIGINATOR     = 

OBJECT_NAME    = XRISM
OBJECT_ID      = 2023-137A
CENTER_NAME    = EARTH
REF_FRAME      = TEME
TIME_SYSTEM    = UTC
MEAN_ELEMENT_THEORY = SGP/SGP4

EPOCH          = 2026-03-11T13:20:11.029344
MEAN_MOTION    = 15.11525276
ECCENTRICITY   = .0007909
INCLINATION    = 31.0013
RA_OF_ASC_NODE = 271.5942
ARG_OF_PERICENTER = 57.7410
MEAN_ANOMALY   = 302.3994

EPHEMERIS_TYPE = 0
CLASSIFICATION_TYPE = U
NORAD_CAT_ID   = 57800
ELEMENT_SET_NO = 999
REV_AT_EPOCH   = 13807
BSTAR          = .33548E-3
MEAN_MOTION_DOT = .5927E-4
MEAN_MOTION_DDOT = 0

CCSDS_OMM_VERS = 2.0
CREATION_DATE  = 
ORIGINATOR     = 

OBJECT_NAME    = ACS3
OBJECT_ID      = 2024-077B
CENTER_NAME    = EARTH
REF_FRAME      = TEME
TIME_SYSTEM    = UTC
MEAN_ELEMENT_THEORY = SGP/SGP4

EPOCH          = 2026-03-11T10:36:32.084064
MEAN_MOTION    = 13.89694797
ECCENTRICITY   = .0061187
INCLINATION    = 97.2061
RA_OF_ASC_NODE = 11.1599
ARG_OF_PERICENTER = 72.3493
MEAN_ANOMALY   = 288.4340

EPHEMERIS_TYPE = 0
CLASSIFICATION_TYPE = U
NORAD_CAT_ID   = 59588
ELEMENT_SET_NO = 999
REV_AT_EPOCH   = 9444
BSTAR          = .20136E-1
MEAN_MOTION_DOT = .25115E-3
MEAN_MOTION_DDOT = 0

CCSDS_OMM_VERS = 2.0
CREATION_DATE  = 
ORIGINATOR     = 

OBJECT_NAME    = SZ-21 MODULE
OBJECT_ID      = 2025-246C
CENTER_NAME    = EARTH
REF_FRAME      = TEME
TIME_SYSTEM    = UTC
MEAN_ELEMENT_THEORY = SGP/SGP4

EPOCH          = 2026-03-11T09:51:03.159072
MEAN_MOTION    = 15.68699733
ECCENTRICITY   = .000124
INCLINATION    = 41.4735
RA_OF_ASC_NODE = 192.7670
ARG_OF_PERICENTER = 303.7163
MEAN_ANOMALY   = 56.3560

EPHEMERIS_TYPE = 0
CLASSIFICATION_TYPE = U
NORAD_CAT_ID   = 66515
ELEMENT_SET_NO = 999
REV_AT_EPOCH   = 1834
BSTAR          = .36895E-3
MEAN_MOTION_DOT = .43213E-3
MEAN_MOTION_DDOT = 0

