XRISM                   
1 57800U 23137A   26070.55568321  .00005927  00000+0  33548-3 0  9994
2 57800  31.0013 271.5942 0007909  57.7410 302.3994 15.11525276138073
ACS3                    
1 59588U 24077B   26070.44203801  .00025115  00000+0  20136-1 0  9998
2 59588  97.2061  11.1599 0061187  72.3493 288.4340 13.89694797 94442
SZ-21 MODULE            
1 66515U 25246C   26070.41045323  .00043213  00000+0  36895-3 0  9995
2 66515  41.4735 192.7670 0001240 303.7163  56.3560 15.68699733 18349
